NORAD_CAT_ID,OBJECT_NAME,OBJECT_TYPE,EPOCH,MEAN_MOTION,ECCENTRICITY,INCLINATION,RA_OF_ASC_NODE,ARG_OF_PERICENTER,MEAN_ANOMALY,BSTAR,MEAN_MOTION_DOT,MEAN_MOTION_DDOT,TLE_LINE0,TLE_LINE1,TLE_LINE2,SEMIMAJOR_AXIS,PERIOD,APOGEE,PERIGEE,DECAYED
54187.0,STARLINK-5240,PAYLOAD,2024-05-05 10:45:32,15.08835054,0.0001274,53.2153,146.2425,84.8354,275.2784,5.7056e-05,6.2e-06,0.0,0 STARLINK-5240,1 54187U 22141AG  24126.44829088  .00000620  00000-0  57056-4 0  9998,2 54187  53.2153 146.2425 0001274  84.8354 275.2784 15.08835054 84451,6917.896,95.438,540.642,538.879,0.0
54187.0,STARLINK-5240,PAYLOAD,2024-05-05 18:42:28,15.08838056,0.0001258,53.2153,144.7558,84.5093,275.6043,0.00015036,2.106e-05,0.0,0 STARLINK-5240,1 54187U 22141AG  24126.77949235  .00002106  00000-0  15036-3 0  9993,2 54187  53.2153 144.7558 0001258  84.5093 275.6043 15.08838056 84277,6917.886,95.438,540.622,538.881,0.0
54187.0,STARLINK-5240,PAYLOAD,2024-05-06 10:36:19,15.08845218,0.0001349,53.2149,141.7818,78.7383,281.376,0.0005152,7.922e-05,0.0,0 STARLINK-5240,1 54187U 22141AG  24127.44189653  .00007922  00000-0  51520-3 0  9997,2 54187  53.2149 141.7818 0001349  78.7383 281.3760 15.08845218 84375,6917.864,95.437,540.663,538.796,0.0
54187.0,STARLINK-5240,PAYLOAD,2024-05-06 18:33:14,15.08872089,0.000128,53.2146,140.295,77.6571,282.4565,0.00094932,0.00014866,0.0,0 STARLINK-5240,1 54187U 22141AG  24127.77308421  .00014866  00000-0  94932-3 0  9998,2 54187  53.2146 140.2950 0001280  77.6571 282.4565 15.08872089 84656,6917.782,95.436,540.533,538.762,0.0
54187.0,STARLINK-5240,PAYLOAD,2024-05-07 10:27:03,15.08901291,0.000147,53.2142,137.3213,72.1162,287.999,0.0010531,0.0001654,0.0,0 STARLINK-5240,1 54187U 22141AG  24128.43546102  .00016540  00000-0  10531-2 0  9995,2 54187  53.2142 137.3213 0001470  72.1162 287.9990 15.08901291 84759,6917.693,95.434,540.575,538.541,0.0
54187.0,STARLINK-5240,PAYLOAD,2024-05-08 03:56:18,15.08849005,0.0001369,53.2139,134.0499,80.0599,280.0548,-0.00066765,-0.000109,0.0,0 STARLINK-5240,1 54187U 22141AG  24129.16410027 -.00010900  00000-0 -66765-3 0  9999,2 54187  53.2139 134.0499 0001369  80.0599 280.0548 15.08849005 84863,6917.853,95.437,540.665,538.771,0.0
54187.0,STARLINK-5240,PAYLOAD,2024-05-08 07:07:04,15.0885046,0.0001231,53.2137,133.4551,80.6134,279.4997,-0.00048436,-7.99e-05,0.0,0 STARLINK-5240,1 54187U 22141AG  24129.29657941 -.00007990  00000-0 -48436-3 0  9991,2 54187  53.2137 133.4551 0001231  80.6134 279.4997 15.08850460 84656,6917.848,95.437,540.565,538.862,0.0
54187.0,STARLINK-5240,PAYLOAD,2024-05-08 16:39:23,15.08841324,0.0001268,53.2138,131.6693,78.7565,281.357,-0.00039537,-6.575e-05,0.0,0 STARLINK-5240,1 54187U 22141AG  24129.69402272 -.00006575  00000-0 -39537-3 0  9990,2 54187  53.2138 131.6693 0001268  78.7565 281.3570 15.08841324 84715,6917.876,95.437,540.619,538.864,0.0
54187.0,STARLINK-5240,PAYLOAD,2024-05-09 06:57:52,15.08849392,0.0001362,53.2159,128.9951,80.7323,279.3823,-0.00022008,-3.79e-05,0.0,0 STARLINK-5240,1 54187U 22141AG  24130.29019106 -.00003790  00000-0 -22008-3 0  9999,2 54187  53.2159 128.9951 0001362  80.7323 279.3823 15.08849392 85031,6917.852,95.437,540.659,538.774,0.0
54187.0,STARLINK-5240,PAYLOAD,2024-05-09 16:30:11,15.08849285,0.0001395,53.2161,127.2108,105.1215,254.9931,-0.00023018,-3.95e-05,0.0,0 STARLINK-5240,1 54187U 22141AG  24130.68762849 -.00003950  00000-0 -23018-3 0  9991,2 54187  53.2161 127.2108 0001395 105.1215 254.9931 15.08849285 84868,6917.852,95.437,540.682,538.752,0.0
54187.0,STARLINK-5240,PAYLOAD,2024-05-10 05:13:17,15.08830737,0.0001354,53.2161,124.8321,87.0909,273.0238,0.00014354,1.997e-05,0.0,0 STARLINK-5240,1 54187U 22141AG  24131.21755812  .00001997  00000-0  14354-3 0  9993,2 54187  53.2161 124.8321 0001354  87.0909 273.0238 15.08830737 85170,6917.909,95.438,540.71,538.837,0.0
54187.0,STARLINK-5240,PAYLOAD,2024-05-10 08:24:03,15.08833338,0.0001368,53.2163,124.2375,87.4975,272.6173,0.00016472,2.334e-05,0.0,0 STARLINK-5240,1 54187U 22141AG  24131.35003742  .00002334  00000-0  16472-3 0  9995,2 54187  53.2163 124.2375 0001368  87.4975 272.6173 15.08833338 84966,6917.901,95.438,540.712,538.819,0.0
54187.0,STARLINK-5240,PAYLOAD,2024-05-10 16:20:59,15.08832579,0.0001371,53.2164,122.7507,87.1342,272.9807,0.00015666,2.206e-05,0.0,0 STARLINK-5240,1 54187U 22141AG  24131.68124117  .00002206  00000-0  15666-3 0  9993,2 54187  53.2164 122.7507 0001371  87.1342 272.9807 15.08832579 85016,6917.903,95.438,540.717,538.82,0.0
54187.0,STARLINK-5240,PAYLOAD,2024-05-11 08:14:49,15.08866251,0.0001381,53.2156,119.7766,100.2586,259.8562,0.00067006,0.000104,0.0,0 STARLINK-5240,1 54187U 22141AG  24132.34363287  .00010400  00000-0  67006-3 0  9990,2 54187  53.2156 119.7766 0001381 100.2586 259.8562 15.08866251 85340,6917.8,95.436,540.62,538.71,0.0
54187.0,STARLINK-5240,PAYLOAD,2024-05-11 22:33:17,15.08874548,0.0001357,53.2154,117.1001,95.7284,264.3863,0.00073722,0.00011475,0.0,0 STARLINK-5240,1 54187U 22141AG  24132.93978193  .00011475  00000-0  73722-3 0  9998,2 54187  53.2154 117.1001 0001357  95.7284 264.3863 15.08874548 85206,6917.775,95.435,540.579,538.701,0.0
54187.0,STARLINK-5240,PAYLOAD,2024-05-12 04:54:51,15.0879824,0.0001883,53.216,115.9116,138.5127,221.6009,-0.0011026,-0.00017773,0.0,0 STARLINK-5240,1 54187U 22141AG  24133.20476436 -.00017773  00000-0 -11026-2 0  9999,2 54187  53.2160 115.9116 0001883 138.5127 221.6009 15.08798240 85473,6918.008,95.44,541.176,538.57,0.0
54187.0,STARLINK-5240,PAYLOAD,2024-05-12 08:05:39,15.08779136,0.0001406,53.2159,115.3168,72.3325,287.7821,-0.0013454,-0.000216,0.0,0 STARLINK-5240,1 54187U 22141AG  24133.33725781 -.00021600  00000-0 -13454-2 0  9994,2 54187  53.2159 115.3168 0001406  72.3325 287.7821 15.08779136 85498,6918.066,95.441,540.904,538.959,0.0
54187.0,STARLINK-5240,PAYLOAD,2024-05-12 16:02:35,15.08785695,0.0001366,53.2169,113.8309,68.9924,291.1214,-0.00092064,-0.00014888,0.0,0 STARLINK-5240,1 54187U 22141AG  24133.66846522 -.00014888  00000-0 -92064-3 0  9992,2 54187  53.2169 113.8309 0001366  68.9924 291.1214 15.08785695 85548,6918.046,95.441,540.856,538.966,0.0
54187.0,STARLINK-5240,PAYLOAD,2024-05-13 04:45:40,15.08812152,0.0001562,53.2159,111.45,95.3374,264.7796,7.0056e-06,-1.77e-06,0.0,0 STARLINK-5240,1 54187U 22141AG  24134.19838957 -.00000177  00000-0  70056-5 0  9998,2 54187  53.2159 111.4500 0001562  95.3374 264.7796 15.08812152 85624,6917.966,95.439,540.911,538.75,0.0
54187.0,STARLINK-5240,PAYLOAD,2024-05-13 15:53:23,15.08830569,0.0001353,53.2161,109.3689,84.5438,275.5709,0.0012418,0.00019525,0.0,0 STARLINK-5240,1 54187U 22141AG  24134.66207649  .00019525  00000-0  12418-2 0  9999,2 54187  53.2161 109.3689 0001353  84.5438 275.5709 15.08830569 85693,6917.909,95.438,540.71,538.838,0.0
54187.0,STARLINK-5240,PAYLOAD,2024-05-13 22:14:55,15.08840519,0.0001373,53.2161,108.1796,77.3094,282.8051,0.00091499,0.00014304,0.0,0 STARLINK-5240,1 54187U 22141AG  24134.92703256  .00014304  00000-0  91499-3 0  9990,2 54187  53.2161 108.1796 0001373  77.3094 282.8051 15.08840519 85506,6917.879,95.438,540.694,538.794,0.0
54187.0,STARLINK-5240,PAYLOAD,2024-05-14 04:36:28,15.08851011,0.0001422,53.2161,106.9903,70.6983,289.4163,0.0010811,0.00016965,0.0,0 STARLINK-5240,1 54187U 22141AG  24135.19199096  .00016965  00000-0  10811-2 0  9994,2 54187  53.2161 106.9903 0001422  70.6983 289.4163 15.08851011 85540,6917.847,95.437,540.695,538.728,0.0
54187.0,STARLINK-5240,PAYLOAD,2024-05-15 04:27:12,15.0888286,0.0001505,53.2164,102.5287,75.261,284.8549,0.00060817,9.416e-05,0.0,0 STARLINK-5240,1 54187U 22141AG  24136.18556497  .00009416  00000-0  60817-3 0  9991,2 54187  53.2164 102.5287 0001505  75.2610 284.8549 15.08882860 85925,6917.749,95.435,540.656,538.573,0.0
54187.0,STARLINK-5240,PAYLOAD,2024-05-15 21:56:27,15.08853838,0.0001706,53.2174,99.2575,73.7686,286.3494,-5.4754e-05,-1.16e-05,0.0,0 STARLINK-5240,1 54187U 22141AG  24136.91420537 -.00001160  00000-0 -54754-4 0  9991,2 54187  53.2174  99.2575 0001706  73.7686 286.3494 15.08853838 85803,6917.838,95.437,540.883,538.523,0.0
54187.0,STARLINK-5240,PAYLOAD,2024-05-16 04:18:00,15.08830934,0.0001476,53.2172,98.0689,89.5521,270.564,-0.00054068,-8.88e-05,0.0,0 STARLINK-5240,1 54187U 22141AG  24137.17916847 -.00008880  00000-0 -54068-3 0  9997,2 54187  53.2172  98.0689 0001476  89.5521 270.5640 15.08830934 86071,6917.908,95.438,540.794,538.752,0.0
54187.0,STARLINK-5240,PAYLOAD,2024-05-16 07:28:46,15.08831112,0.0001458,53.217,97.4737,90.1248,269.9911,-0.00035694,-5.963e-05,0.0,0 STARLINK-5240,1 54187U 22141AG  24137.31165011 -.00005963  00000-0 -35694-3 0  9995,2 54187  53.2170  97.4737 0001458  90.1248 269.9911 15.08831112 85868,6917.908,95.438,540.781,538.764,0.0
54187.0,STARLINK-5240,PAYLOAD,2024-05-17 04:08:46,15.08876953,0.0001402,53.2166,93.6096,100.8823,259.2327,0.0016196,0.00025608,0.0,0 STARLINK-5240,1 54187U 22141AG  24138.17276442  .00025608  00000-0  16196-2 0  9992,2 54187  53.2166  93.6096 0001402 100.8823 259.2327 15.08876953 86222,6917.767,95.435,540.602,538.663,0.0
54187.0,STARLINK-5240,PAYLOAD,2024-05-17 13:41:05,15.08863787,0.0001382,53.2167,91.8234,83.8803,276.2347,0.0011486,0.00018051,0.0,0 STARLINK-5240,1 54187U 22141AG  24138.57020145  .00018051  00000-0  11486-2 0  9994,2 54187  53.2167  91.8234 0001382  83.8803 276.2347 15.08863787 86055,6917.808,95.436,540.629,538.717,0.0
54187.0,STARLINK-5240,PAYLOAD,2024-05-17 20:02:38,15.08848758,0.0002753,53.2162,90.6356,78.0016,282.1284,0.00083448,0.00013021,0.0,0 STARLINK-5240,1 54187U 22141AG  24138.83516900  .00013021  00000-0  83448-3 0  9992,2 54187  53.2162  90.6356 0002753  78.0016 282.1284 15.08848758 86324,6917.854,95.437,541.623,537.814,0.0
54187.0,STARLINK-5240,PAYLOAD,2024-05-18 03:59:34,15.08837478,0.0001097,53.216,89.1492,83.6928,276.4189,0.002155,0.00034173,0.0,0 STARLINK-5240,1 54187U 22141AG  24139.16636942  .00034173  00000-0  21550-2 0  9994,2 54187  53.2160  89.1492 0001097  83.6928 276.4189 15.08837478 86372,6917.888,95.438,540.512,538.994,0.0
